ONEWEB-0558             
1 56059U 23043P   26198.11708657  .00000052  00000+0  95523-4 0  9992
2 56059  87.9235 238.0218 0002422  94.9702 265.1708 13.21826215162195
ONEWEB-0559             
1 56060U 23043Q   26197.65113479 -.00000024  00000+0 -90125-4 0  9998
2 56060  87.9235 238.1100 0002236 100.0722 260.0664 13.21824400162146
ONEWEB-0566             
1 56061U 23043R   26198.09858625  .00000022  00000+0  21869-4 0  9992
2 56061  87.9234 238.0189 0002346 102.6877 257.4519 13.21824185162186
ONEWEB-0568             
1 56062U 23043S   26198.02973410 -.00000021  00000+0 -88185-4 0  9991
2 56062  87.9077 222.8430 0002103  85.3403 274.7969 13.16595603162900
ONEWEB-0574             
1 56063U 23043T   26198.09186851  .00000024  00000+0  26667-4 0  9992
2 56063  87.9240 238.0251 0001884  94.2196 265.9153 13.21825977162224
ONEWEB-0575             
1 56064U 23043U   26198.02339639 -.00000031  00000+0 -11484-3 0  9990
2 56064  87.9076 222.8405 0001731  84.3978 275.7350 13.16595414162898
ONEWEB-0576             
1 56065U 23043V   26198.08038784  .00000024  00000+0  28907-4 0  9993
2 56065  87.9083 222.8379 0001890  89.8182 270.3165 13.16596127162897
ONEWEB-0577             
1 56066U 23043W   26198.01073241  .00000014  00000+0  21224-5 0  9999
2 56066  87.9081 222.8494 0001324  84.1872 275.9410 13.16596072162916
ONEWEB-0578             
1 56067U 23043X   26198.07840971  .00000100  00000+0  21152-3 0  9992
2 56067  87.9237 238.0244 0002113  87.5726 272.5650 13.21826526162188
ONEWEB-0579             
1 56068U 23043Y   26198.06997524 -.00000178  00000+0 -46331-3 0  9992
2 56068  87.9240 238.0247 0002063 102.7244 257.4121 13.21825045162196
ONEWEB-0581             
1 56069U 23043Z   26198.01706409 -.00000010  00000+0 -58979-4 0  9995
2 56069  87.9070 222.8585 0001496  91.3997 268.7305 13.16595545162889
ONEWEB-0609             
1 56070U 23043AA  26198.14797228  .00000205  00000+0  51013-3 0  9995
2 56070  87.8981 253.2412 0002136  97.0295 263.1078 13.15547430160371
ONEWEB-0613             
1 56071U 23043AB  26197.68925248  .00000114  00000+0  26816-3 0  9991
2 56071  87.8982 253.3452 0002215 103.9634 256.1743 13.15548480160311
ONEWEB-0630             
1 56072U 23043AC  26198.14083590  .00000203  00000+0  50633-3 0  9992
2 56072  87.8987 253.2287 0002176 103.4306 256.7067 13.15549547160364
ONEWEB-0632             
1 56073U 23043AD  26198.13609328  .00000271  00000+0  68708-3 0  9992
2 56073  87.8989 253.2455 0001922  96.9867 263.1482 13.15549176160361
ONEWEB-0633             
1 56074U 23043AE  26198.12975195 -.00001140  00000+0 -30625-2 0  9994
2 56074  87.8991 253.2251 0002456 100.0293 260.1115 13.15554674160349
