{"fetched_at":"2026-07-17T17:37:53.421Z","source":"https://celestrak.org/NORAD/elements/gp.php?GROUP=oneweb&FORMAT=JSON","constellation":"oneweb","records":[{"OBJECT_NAME":"ONEWEB-0558","OBJECT_ID":"2023-043P","EPOCH":"2026-07-17T02:48:36.279648","CLASSIFICATION_TYPE":"U","MEAN_MOTION":13.21826215,"ECCENTRICITY":0.00024229,"INCLINATION":87.9235,"RA_OF_ASC_NODE":238.0218,"ARG_OF_PERICENTER":94.9702,"MEAN_ANOMALY":265.1708,"EPHEMERIS_TYPE":0,"NORAD_CAT_ID":56059,"ELEMENT_SET_NO":999,"REV_AT_EPOCH":16219,"BSTAR":0.000095522685,"MEAN_MOTION_DOT":5.2e-7,"MEAN_MOTION_DDOT":0},{"OBJECT_NAME":"ONEWEB-0559","OBJECT_ID":"2023-043Q","EPOCH":"2026-07-16T15:37:38.045856","CLASSIFICATION_TYPE":"U","MEAN_MOTION":13.218244,"ECCENTRICITY":0.00022362,"INCLINATION":87.9235,"RA_OF_ASC_NODE":238.11,"ARG_OF_PERICENTER":100.0722,"MEAN_ANOMALY":260.0664,"EPHEMERIS_TYPE":0,"NORAD_CAT_ID":56060,"ELEMENT_SET_NO":999,"REV_AT_EPOCH":16214,"BSTAR":-0.000090125304,"MEAN_MOTION_DOT":-2.4e-7,"MEAN_MOTION_DDOT":0},{"OBJECT_NAME":"ONEWEB-0566","OBJECT_ID":"2023-043R","EPOCH":"2026-07-17T02:21:57.852000","CLASSIFICATION_TYPE":"U","MEAN_MOTION":13.21824185,"ECCENTRICITY":0.00023465,"INCLINATION":87.9234,"RA_OF_ASC_NODE":238.0189,"ARG_OF_PERICENTER":102.6877,"MEAN_ANOMALY":257.4519,"EPHEMERIS_TYPE":0,"NORAD_CAT_ID":56061,"ELEMENT_SET_NO":999,"REV_AT_EPOCH":16218,"BSTAR":0.000021869464,"MEAN_MOTION_DOT":2.2e-7,"MEAN_MOTION_DDOT":0},{"OBJECT_NAME":"ONEWEB-0568","OBJECT_ID":"2023-043S","EPOCH":"2026-07-17T00:42:49.026240","CLASSIFICATION_TYPE":"U","MEAN_MOTION":13.16595603,"ECCENTRICITY":0.00021034,"INCLINATION":87.9077,"RA_OF_ASC_NODE":222.843,"ARG_OF_PERICENTER":85.3403,"MEAN_ANOMALY":274.7969,"EPHEMERIS_TYPE":0,"NORAD_CAT_ID":56062,"ELEMENT_SET_NO":999,"REV_AT_EPOCH":16290,"BSTAR":-0.000088185148,"MEAN_MOTION_DOT":-2.1e-7,"MEAN_MOTION_DDOT":0},{"OBJECT_NAME":"ONEWEB-0574","OBJECT_ID":"2023-043T","EPOCH":"2026-07-17T02:12:17.439264","CLASSIFICATION_TYPE":"U","MEAN_MOTION":13.21825977,"ECCENTRICITY":0.00018841,"INCLINATION":87.924,"RA_OF_ASC_NODE":238.0251,"ARG_OF_PERICENTER":94.2196,"MEAN_ANOMALY":265.9153,"EPHEMERIS_TYPE":0,"NORAD_CAT_ID":56063,"ELEMENT_SET_NO":999,"REV_AT_EPOCH":16222,"BSTAR":0.000026667462,"MEAN_MOTION_DOT":2.4e-7,"MEAN_MOTION_DDOT":0},{"OBJECT_NAME":"ONEWEB-0575","OBJECT_ID":"2023-043U","EPOCH":"2026-07-17T00:33:41.448096","CLASSIFICATION_TYPE":"U","MEAN_MOTION":13.16595414,"ECCENTRICITY":0.00017311,"INCLINATION":87.9076,"RA_OF_ASC_NODE":222.8405,"ARG_OF_PERICENTER":84.3978,"MEAN_ANOMALY":275.735,"EPHEMERIS_TYPE":0,"NORAD_CAT_ID":56064,"ELEMENT_SET_NO":999,"REV_AT_EPOCH":16289,"BSTAR":-0.00011483953,"MEAN_MOTION_DOT":-3.1e-7,"MEAN_MOTION_DDOT":0},{"OBJECT_NAME":"ONEWEB-0576","OBJECT_ID":"2023-043V","EPOCH":"2026-07-17T01:55:45.509376","CLASSIFICATION_TYPE":"U","MEAN_MOTION":13.16596127,"ECCENTRICITY":0.00018907,"INCLINATION":87.9083,"RA_OF_ASC_NODE":222.8379,"ARG_OF_PERICENTER":89.8182,"MEAN_ANOMALY":270.3165,"EPHEMERIS_TYPE":0,"NORAD_CAT_ID":56065,"ELEMENT_SET_NO":999,"REV_AT_EPOCH":16289,"BSTAR":0.000028907089,"MEAN_MOTION_DOT":2.4e-7,"MEAN_MOTION_DDOT":0},{"OBJECT_NAME":"ONEWEB-0577","OBJECT_ID":"2023-043W","EPOCH":"2026-07-17T00:15:27.280224","CLASSIFICATION_TYPE":"U","MEAN_MOTION":13.16596072,"ECCENTRICITY":0.00013243,"INCLINATION":87.9081,"RA_OF_ASC_NODE":222.8494,"ARG_OF_PERICENTER":84.1872,"MEAN_ANOMALY":275.941,"EPHEMERIS_TYPE":0,"NORAD_CAT_ID":56066,"ELEMENT_SET_NO":999,"REV_AT_EPOCH":16291,"BSTAR":0.000002122398,"MEAN_MOTION_DOT":1.4e-7,"MEAN_MOTION_DDOT":0},{"OBJECT_NAME":"ONEWEB-0578","OBJECT_ID":"2023-043X","EPOCH":"2026-07-17T01:52:54.598944","CLASSIFICATION_TYPE":"U","MEAN_MOTION":13.21826526,"ECCENTRICITY":0.00021131,"INCLINATION":87.9237,"RA_OF_ASC_NODE":238.0244,"ARG_OF_PERICENTER":87.5726,"MEAN_ANOMALY":272.565,"EPHEMERIS_TYPE":0,"NORAD_CAT_ID":56067,"ELEMENT_SET_NO":999,"REV_AT_EPOCH":16218,"BSTAR":0.00021152485,"MEAN_MOTION_DOT":0.000001,"MEAN_MOTION_DDOT":0},{"OBJECT_NAME":"ONEWEB-0579","OBJECT_ID":"2023-043Y","EPOCH":"2026-07-17T01:40:45.860736","CLASSIFICATION_TYPE":"U","MEAN_MOTION":13.21825045,"ECCENTRICITY":0.00020631,"INCLINATION":87.924,"RA_OF_ASC_NODE":238.0247,"ARG_OF_PERICENTER":102.7244,"MEAN_ANOMALY":257.4121,"EPHEMERIS_TYPE":0,"NORAD_CAT_ID":56068,"ELEMENT_SET_NO":999,"REV_AT_EPOCH":16219,"BSTAR":-0.00046331098,"MEAN_MOTION_DOT":-0.00000178,"MEAN_MOTION_DDOT":0},{"OBJECT_NAME":"ONEWEB-0581","OBJECT_ID":"2023-043Z","EPOCH":"2026-07-17T00:24:34.337376","CLASSIFICATION_TYPE":"U","MEAN_MOTION":13.16595545,"ECCENTRICITY":0.00014966,"INCLINATION":87.907,"RA_OF_ASC_NODE":222.8585,"ARG_OF_PERICENTER":91.3997,"MEAN_ANOMALY":268.7305,"EPHEMERIS_TYPE":0,"NORAD_CAT_ID":56069,"ELEMENT_SET_NO":999,"REV_AT_EPOCH":16288,"BSTAR":-0.000058978692,"MEAN_MOTION_DOT":-1e-7,"MEAN_MOTION_DDOT":0},{"OBJECT_NAME":"ONEWEB-0609","OBJECT_ID":"2023-043AA","EPOCH":"2026-07-17T03:33:04.804992","CLASSIFICATION_TYPE":"U","MEAN_MOTION":13.1554743,"ECCENTRICITY":0.00021367,"INCLINATION":87.8981,"RA_OF_ASC_NODE":253.2412,"ARG_OF_PERICENTER":97.0295,"MEAN_ANOMALY":263.1078,"EPHEMERIS_TYPE":0,"NORAD_CAT_ID":56070,"ELEMENT_SET_NO":999,"REV_AT_EPOCH":16037,"BSTAR":0.00051013394,"MEAN_MOTION_DOT":0.00000205,"MEAN_MOTION_DDOT":0},{"OBJECT_NAME":"ONEWEB-0613","OBJECT_ID":"2023-043AB","EPOCH":"2026-07-16T16:32:31.414272","CLASSIFICATION_TYPE":"U","MEAN_MOTION":13.1554848,"ECCENTRICITY":0.0002215,"INCLINATION":87.8982,"RA_OF_ASC_NODE":253.3452,"ARG_OF_PERICENTER":103.9634,"MEAN_ANOMALY":256.1743,"EPHEMERIS_TYPE":0,"NORAD_CAT_ID":56071,"ELEMENT_SET_NO":999,"REV_AT_EPOCH":16031,"BSTAR":0.00026816025,"MEAN_MOTION_DOT":0.00000114,"MEAN_MOTION_DDOT":0},{"OBJECT_NAME":"ONEWEB-0630","OBJECT_ID":"2023-043AC","EPOCH":"2026-07-17T03:22:48.221760","CLASSIFICATION_TYPE":"U","MEAN_MOTION":13.15549547,"ECCENTRICITY":0.00021766,"INCLINATION":87.8987,"RA_OF_ASC_NODE":253.2287,"ARG_OF_PERICENTER":103.4306,"MEAN_ANOMALY":256.7067,"EPHEMERIS_TYPE":0,"NORAD_CAT_ID":56072,"ELEMENT_SET_NO":999,"REV_AT_EPOCH":16036,"BSTAR":0.00050633458,"MEAN_MOTION_DOT":0.00000203,"MEAN_MOTION_DDOT":0},{"OBJECT_NAME":"ONEWEB-0632","OBJECT_ID":"2023-043AD","EPOCH":"2026-07-17T03:15:58.459392","CLASSIFICATION_TYPE":"U","MEAN_MOTION":13.15549176,"ECCENTRICITY":0.00019225,"INCLINATION":87.8989,"RA_OF_ASC_NODE":253.2455,"ARG_OF_PERICENTER":96.9867,"MEAN_ANOMALY":263.1482,"EPHEMERIS_TYPE":0,"NORAD_CAT_ID":56073,"ELEMENT_SET_NO":999,"REV_AT_EPOCH":16036,"BSTAR":0.00068708317,"MEAN_MOTION_DOT":0.00000271,"MEAN_MOTION_DDOT":0},{"OBJECT_NAME":"ONEWEB-0633","OBJECT_ID":"2023-043AE","EPOCH":"2026-07-17T03:06:50.568480","CLASSIFICATION_TYPE":"U","MEAN_MOTION":13.15554674,"ECCENTRICITY":0.00024567,"INCLINATION":87.8991,"RA_OF_ASC_NODE":253.2251,"ARG_OF_PERICENTER":100.0293,"MEAN_ANOMALY":260.1115,"EPHEMERIS_TYPE":0,"NORAD_CAT_ID":56074,"ELEMENT_SET_NO":999,"REV_AT_EPOCH":16034,"BSTAR":-0.0030624734,"MEAN_MOTION_DOT":-0.0000114,"MEAN_MOTION_DDOT":0}]}
